{
    "links": {
        "self": "http://www.neowsapp.com/rest/v1/neo/3471661?api_key=iIulBulltgU6a56xZRHN4H3l9WmuAYTsLGpBGhQ2"
    },
    "id": "3471661",
    "neo_reference_id": "3471661",
    "name": "(2009 UN)",
    "designation": "2009 UN",
    "nasa_jpl_url": "http://ssd.jpl.nasa.gov/sbdb.cgi?sstr=3471661",
    "absolute_magnitude_h": 21.4,
    "estimated_diameter": {
        "kilometers": {
            "estimated_diameter_min": 0.1394938229,
            "estimated_diameter_max": 0.3119176705
        },
        "meters": {
            "estimated_diameter_min": 139.4938229344,
            "estimated_diameter_max": 311.9176705226
        },
        "miles": {
            "estimated_diameter_min": 0.0866774163,
            "estimated_diameter_max": 0.1938165949
        },
        "feet": {
            "estimated_diameter_min": 457.6569140361,
            "estimated_diameter_max": 1023.3519701574
        }
    },
    "is_potentially_hazardous_asteroid": false,
    "close_approach_data": [
        {
            "close_approach_date": "1935-06-04",
            "close_approach_date_full": "1935-Jun-04 12:07",
            "epoch_date_close_approach": -1091188380000,
            "relative_velocity": {
                "kilometers_per_second": "7.4517923046",
                "kilometers_per_hour": "26826.4522966419",
                "miles_per_hour": "16668.9142062106"
            },
            "miss_distance": {
                "astronomical": "1.9549155348",
                "lunar": "760.4621430372",
                "kilometers": "292451200.035990876",
                "miles": "181720749.1992550488"
            },
            "orbiting_body": "Juptr"
        },
        {
            "close_approach_date": "1959-02-24",
            "close_approach_date_full": "1959-Feb-24 18:01",
            "epoch_date_close_approach": -342424740000,
            "relative_velocity": {
                "kilometers_per_second": "7.3254435658",
                "kilometers_per_hour": "26371.5968367481",
                "miles_per_hour": "16386.2847122561"
            },
            "miss_distance": {
                "astronomical": "1.9268213514",
                "lunar": "749.5335056946",
                "kilometers": "288248370.039961518",
                "miles": "179109231.7373962284"
            },
            "orbiting_body": "Juptr"
        },
        {
            "close_approach_date": "1985-11-01",
            "close_approach_date_full": "1985-Nov-01 21:29",
            "epoch_date_close_approach": 499728540000,
            "relative_velocity": {
                "kilometers_per_second": "4.6081045196",
                "kilometers_per_hour": "16589.1762704437",
                "miles_per_hour": "10307.868999821"
            },
            "miss_distance": {
                "astronomical": "0.1937829977",
                "lunar": "75.3815861053",
                "kilometers": "28989523.698134899",
                "miles": "18013254.7402996462"
            },
            "orbiting_body": "Earth"
        },
        {
            "close_approach_date": "2009-10-28",
            "close_approach_date_full": "2009-Oct-28 18:36",
            "epoch_date_close_approach": 1256754960000,
            "relative_velocity": {
                "kilometers_per_second": "6.5505105325",
                "kilometers_per_hour": "23581.8379170581",
                "miles_per_hour": "14652.8370101854"
            },
            "miss_distance": {
                "astronomical": "0.2880413758",
                "lunar": "112.0480951862",
                "kilometers": "43090376.291549546",
                "miles": "26775118.2488378948"
            },
            "orbiting_body": "Earth"
        },
        {
            "close_approach_date": "2033-10-19",
            "close_approach_date_full": "2033-Oct-19 07:58",
            "epoch_date_close_approach": 2013321480000,
            "relative_velocity": {
                "kilometers_per_second": "11.8255211553",
                "kilometers_per_hour": "42571.876159125",
                "miles_per_hour": "26452.5082723185"
            },
            "miss_distance": {
                "astronomical": "0.4725564373",
                "lunar": "183.8244541097",
                "kilometers": "70693436.474868551",
                "miles": "43926864.5097099638"
            },
            "orbiting_body": "Earth"
        }
    ],
    "orbital_data": {
        "orbit_id": "14",
        "orbit_determination_date": "2017-04-06 08:59:33",
        "first_observation_date": "2009-10-16",
        "last_observation_date": "2009-12-20",
        "data_arc_in_days": 65,
        "observations_used": 47,
        "orbit_uncertainty": "6",
        "minimum_orbit_intersection": ".180501",
        "jupiter_tisserand_invariant": "3.027",
        "epoch_osculation": "2459000.5",
        "eccentricity": ".5872932319925188",
        "semi_major_axis": "2.839459675566602",
        "inclination": "2.359465106951372",
        "ascending_node_longitude": "34.71936355459383",
        "orbital_period": "1747.640035263263",
        "perihelion_distance": "1.171864225590663",
        "perihelion_argument": "7.093715150626251",
        "aphelion_distance": "4.507055125542541",
        "perihelion_time": "2458641.470787517377",
        "mean_anomaly": "73.95717303665108",
        "mean_motion": ".2059920765924602",
        "equinox": "J2000",
        "orbit_class": {
            "orbit_class_type": "AMO",
            "orbit_class_description": "Near-Earth asteroid orbits similar to that of 1221 Amor",
            "orbit_class_range": "1.017 AU < q (perihelion) < 1.3 AU"
        }
    },
    "is_sentry_object": false
}